PAKTES 1A               
1 43529U 18056A   23315.82730016  .00003012  00000+0  31026-3 0  9994
2 43529  98.0167  69.1308 0025126  12.0736 348.1079 14.90820350290205
PRSS 1                  
1 43530U 18056B   23315.77436191  .00001746  00000+0  24642-3 0  9995
2 43530  97.8887  29.8913 0001143 100.5784 259.5556 14.78454571288113
HAIYANG-1C              
1 43609U 18068A   23315.81662864  .00000320  00000+0  12913-3 0  9993
2 43609  98.4006  21.9419 0011438  38.2479 321.9515 14.34247984271155
SSTL S1-4               
1 43618U 18071A   23315.82718893  .00002097  00000+0  19703-3 0  9999
2 43618  97.6263 203.6530 0009550  95.6970 264.5340 14.94948970281180
HAIYANG-2B              
1 43655U 18081A   23315.79063530  .00000028  00000+0  70082-4 0  9998
2 43655  99.3407 322.4059 0000168 235.0134 125.1002 13.79303484254188
CZ-4B R/B               
1 43656U 18081B   23315.49017808  .00000531  00000+0  17640-3 0  9992
2 43656  99.4516 137.7893 0207785 114.4182 247.8832 14.31001329263579
CFOSAT                  
1 43662U 18083A   23315.79057680  .00006392  00000+0  33097-3 0  9991
2 43662  97.3892 331.2368 0001419 139.7743 220.3595 15.16545427278807
2018-083B               
1 43663U 18083B   23315.79163416  .00028034  00000+0  77964-3 0  9995
2 43663  97.3641 341.5149 0005643 337.3450  22.7544 15.36795548279504
2018-083C               
1 43664U 18083C   23315.77774801  .00016821  00000+0  55269-3 0  9995
2 43664  97.3692 337.7688 0007722 342.1781  17.9189 15.31601906279394
2018-083D               
1 43665U 18083D   23315.79981837  .00017762  00000+0  57469-3 0  9996
2 43665  97.3692 338.5615 0008838 340.9346  19.1563 15.32076562279436
CUBEBEL-1 (BSUSAT-1)    
1 43666U 18083E   23315.81717033  .00082171  00000+0  12674-2 0  9999
2 43666  97.3617 349.4940 0004736 309.4686  50.6148 15.53861106279984
2018-083G               
1 43668U 18083G   23315.78791021  .00030166  00000+0  78017-3 0  9997
2 43668  97.3625 339.9601 0005079 335.4559  24.6444 15.39031396279582
CHANGSHAGAOXIN (TY 4-01)
1 43669U 18083H   23315.80748574  .00051006  00000+0  10434-2 0  9990
2 43669  97.3639 343.0095 0003943 330.5521  29.5505 15.45957062279658
TEN-KOH                 
1 43677U 18084G   23315.74620277  .00004263  00000+0  40378-3 0  9996
2 43677  98.0338  98.6363 0015160  25.4053 334.7909 14.94088780274082
DIWATA-2B               
1 43678U 18084H   23315.83070150  .00003129  00000+0  29818-3 0  9992
2 43678  98.0436 103.0379 0010191  40.4753 319.7222 14.94100356274303
STARS-AO                
1 43679U 18084J   23315.66025934  .00006237  00000+0  52355-3 0  9999
2 43679  98.0437 107.0482 0009081  36.7721 323.4122 14.98691831274503
AUTCUBE 2               
1 43681U 18084K   23315.36819929  .00006088  00000+0  53408-3 0  9998
2 43681  98.0396 104.3116 0009070  37.8318 322.3539 14.96984934274312
METOP-C                 
1 43689U 18087A   23315.79620226  .00000258  00000+0  13783-3 0  9991
2 43689  98.7130  13.0212 0002502  12.8372 347.2868 14.21477475260098
ES'HAIL 2               
1 43700U 18090A   23315.77246411  .00000168  00000+0  00000+0 0  9991
2 43700   0.0126  91.2660 0001525 174.6630  88.6559  1.00274294 18413
TIANPING 1B             
1 43714U 18094E   23315.81662843  .00011624  00000+0  34642-3 0  9998
2 43714  97.3846 327.8909 0009487 348.3361  11.7661 15.34789178277159
MOHAMMED VI-B           
1 43717U 18095A   23315.78971229  .00001566  00000+0  22873-3 0  9996
2 43717  97.9613  25.6999 0001126 102.7348 257.3988 14.77115986268023
HYSIS                   
1 43719U 18096A   23315.75777067  .00002252  00000+0  31336-3 0  9997
2 43719  97.8968  19.1949 0001203 353.6699   6.4497 14.78776700267263
GLOBAL-1                
1 43730U 18096M   23315.77886638  .00088237  00000+0  87813-3 0  9995
2 43730  97.3237  44.4890 0007149 358.9891   1.1353 15.65399841276934
COSMOS 2530             
1 43751U 18097A   23315.79216153  .00000022  00000+0  84773-4 0  9999
2 43751  82.5122  90.9506 0018794 305.6616  54.2714 12.42906692224559
COSMOS 2531             
1 43752U 18097B   23315.81926083  .00000030  00000+0  14429-3 0  9992
2 43752  82.5166  91.6435 0016201 323.6595  36.3384 12.42876642224560
COSMOS 2532             
1 43753U 18097C   23315.76593086  .00000022  00000+0  85553-4 0  9998
2 43753  82.5112  90.8937 0017533 326.3045  33.6919 12.42876998224556
MINXSS-2                
1 43758U 18099A   23315.42049335  .00008491  00000+0  61512-3 0  9997
2 43758  97.5875  16.6336 0018162 349.4722  10.6121 15.04080534269855
SIRION PATHFINDER-2     
1 43759U 18099B   23315.74837716  .00004791  00000+0  38869-3 0  9999
2 43759  97.5530  13.1927 0012992 330.5231  29.5259 15.00051250269730
AISTECHSAT 2            
1 43768U 18099L   23315.15586930  .00005081  00000+0  41393-3 0  9992
2 43768  97.5474  10.4923 0008092 350.0481  10.0581 14.99899518269268
FOX-1CLIFF (AO-95)      
1 43770U 18099N   23315.71050518  .00007790  00000+0  59785-3 0  9998
2 43770  97.5809  13.4853 0014868  23.8239 336.3671 15.01965293269736
RANGE-A                 
1 43772U 18099Q   23315.12198483  .00010648  00000+0  76826-3 0  9990
2 43772  97.5576  15.9764 0005093 305.3196  54.7554 15.04288313269732
RANGE-B                 
1 43773U 18099R   23315.38336885  .00005775  00000+0  46962-3 0  9992
2 43773  97.5498  10.5510 0012844 357.4020   2.7135 14.99879896269612
HIBER-2                 
1 43774U 18099S   23315.44938930  .00011725  00000+0  82435-3 0  9996
2 43774  97.5774  16.4895 0010353 345.0581  15.0338 15.05204153269808
MOVE-II                 
1 43780U 18099Y   23315.39928800  .00014453  00000+0  95087-3 0  9990
2 43780  97.5541  16.5231 0008217  18.3354 341.8169 15.07638948269881
VESTA-1                 
1 43781U 18099Z   23315.40279499  .00008008  00000+0  58482-3 0  9993
2 43781  97.5514  13.0575 0007390   8.6663 351.4690 15.03902671269756
SNUSAT-2                
1 43782U 18099AA  23315.43220282  .00006635  00000+0  51592-3 0  9992
2 43782  97.5529  13.4708 0015307 321.8218  38.1921 15.01516753269710
SNUGLITE                
1 43784U 18099AC  23315.72086159  .00008390  00000+0  64030-3 0  9990
2 43784  97.5272  13.3019 0005481 337.8123  22.2864 15.02225707269802
ITASAT                  
1 43786U 18099AE  23315.16373956  .00005633  00000+0  44240-3 0  9992
2 43786  97.5513  13.7256 0019406   8.9089 351.2476 15.01140970269685
KAZSCISAT-1             
1 43787U 18099AF  23315.68050094  .00013154  00000+0  88561-3 0  9996
2 43787  97.5396  14.7671 0007054 353.8226   6.2914 15.06812722269958
EAGLET-I                
1 43790U 18099AJ  23315.39370931  .00005576  00000+0  44676-3 0  9991
2 43790  97.5643  14.3256 0016090 359.9222   0.1996 15.00430778269443
ESEO                    
1 43792U 18099AL  23315.11778287  .00003205  00000+0  27327-3 0  9990
2 43792  97.5526  12.0414 0012254   0.6256 359.4980 14.98367053269388
CSIM-FD                 
1 43793U 18099AM  23315.45871447  .00014191  00000+0  92623-3 0  9997
2 43793  97.5616  18.0895 0014284 349.3314  10.7608 15.07880551269749
ORBWEAVER 1             
1 43795U 18099AP  23315.14958970  .00031062  00000+0  15821-2 0  9992
2 43795  97.5598  21.5148 0001909 286.6995  73.4028 15.16728599270194
THEA                    
1 43796U 18099AQ  23315.45424567  .00008546  00000+0  62849-3 0  9991
2 43796  97.5790  16.8176 0014049 346.9462  13.1398 15.03562595268797
ASTROCAST 0.1           
1 43798U 18099AS  23315.76630765  .00009168  00000+0  63427-3 0  9990
2 43798  97.5690  17.5159 0010472 328.2540  31.8055 15.05869990269950
JY1SAT (JO-97)          
1 43803U 18099AX  23315.42965003  .00008023  00000+0  59888-3 0  9991
2 43803  97.5562  14.3271 0009738 338.7263  21.3556 15.03059413269797
SUOMI-100               
1 43804U 18099AY  23315.13013836  .00007355  00000+0  55514-3 0  9997
2 43804  97.5589  13.8241 0017233 330.0239  29.9998 15.02591025269743
AL-FARABI 2             
1 43805U 18099AZ  23315.40687536  .00009824  00000+0  69333-3 0  9999
2 43805  97.5428  15.2781 0011338 326.5752  33.4757 15.05096202269878
CENTAURI-1              
1 43809U 18099BD  23315.71333676  .00006250  00000+0  49361-3 0  9999
2 43809  97.5560  14.0419 0020309 356.6466   3.4619 15.00876652269489
GLOBAL-2                
1 43812U 18099BG  23315.43191849  .00004424  00000+0  35999-3 0  9999
2 43812  97.5389  12.6338 0012190 350.5326   9.5666 14.99986627269292
BRIO                    
1 43813U 18099BH  23315.15465136  .00013313  00000+0  88547-3 0  9996
2 43813  97.5974  20.5360 0007323 334.0858  26.0002 15.07260481269612
SPACEBEE-5              
1 43817U 18099BM  23315.48839500  .00098741  00000+0  28534-2 0  9993
2 43817  97.5749  29.2581 0004005 278.8126  81.2663 15.35247716270136
SEAHAWK-1               
1 43820U 18099BQ  23315.59945250  .00006289  00000+0  48851-3 0  9990
2 43820  97.5328  13.2971 0013497 355.5859   4.5244 15.01596047269194
SAUDISAT 5A             
1 43831U 18102A   23315.81886675  .00006099  00000+0  34595-3 0  9996
2 43831  97.4394  21.7800 0012230 209.7715 150.2822 15.13262384271548
SAUDISAT 5B             
1 43833U 18102C   23315.81105749  .00006587  00000+0  36759-3 0  9990
2 43833  97.4434  23.2732 0012952 215.0856 144.9523 15.13808876271611
2018-102D               
1 43834U 18102D   23315.82414127  .00009508  00000+0  48774-3 0  9991
2 43834  97.4535  25.8273 0011563 210.8463 149.2092 15.16693018271742
2018-102E               
1 43835U 18102E   23315.78666979  .00017742  00000+0  74761-3 0  9995
2 43835  97.4550  29.0256 0010955 199.6551 160.4265 15.23341488271952
2018-102F               
1 43836U 18102F   23315.76967392  .00019353  00000+0  80425-3 0  9991
2 43836  97.4601  30.2869 0011225 200.3962 159.6828 15.23789510271969
2018-102G               
1 43837U 18102G   23315.79963268  .00020008  00000+0  80057-3 0  9993
2 43837  97.4617  31.3128 0010763 201.0294 159.0502 15.25062516272044
